[{"OBJECT_NAME":"SPARK 1","OBJECT_ID":"2016-081C","EPOCH":"2026-03-09T21:21:27.733248","MEAN_MOTION":14.59658645,"ECCENTRICITY":0.00224597,"INCLINATION":98.5453,"RA_OF_ASC_NODE":60.355,"ARG_OF_PERICENTER":266.7681,"MEAN_ANOMALY":93.0948,"EPHEMERIS_TYPE":0,"CLASSIFICATION_TYPE":"U","NORAD_CAT_ID":41900,"ELEMENT_SET_NO":999,"REV_AT_EPOCH":48978,"BSTAR":0.00021503269,"MEAN_MOTION_DOT":9.77e-6,"MEAN_MOTION_DDOT":0},{"OBJECT_NAME":"COSMOS 2251 DEB","OBJECT_ID":"1993-036CE","EPOCH":"2026-03-09T22:26:33.562752","MEAN_MOTION":14.50913337,"ECCENTRICITY":0.00334152,"INCLINATION":74.0097,"RA_OF_ASC_NODE":251.4051,"ARG_OF_PERICENTER":91.9059,"MEAN_ANOMALY":268.5929,"EPHEMERIS_TYPE":0,"CLASSIFICATION_TYPE":"U","NORAD_CAT_ID":33837,"ELEMENT_SET_NO":999,"REV_AT_EPOCH":90060,"BSTAR":0.00032011964,"MEAN_MOTION_DOT":1.245e-5,"MEAN_MOTION_DDOT":0}]
